STARLINK-30240
1 57404U 23102A   26061.16668981  .00096752  00000+0  57494-2 0  9997
2 57404  43.0002 289.8233 0002051 275.4387  95.4077 15.10236209  5815
